$$SOE
2460147.500000000, A.D. 2023-Jul-22 00:00:00.0000, -2.146383966357988E+08, -1.978761126835493E+08, 4.401162785615292E+07,
2460154.500000000, A.D. 2023-Jul-29 00:00:00.0000, -2.050389637711213E+08, -2.051544817209722E+08, 4.791009628910617E+07,
2460161.500000000, A.D. 2023-Aug-05 00:00:00.0000, -1.950479047341512E+08, -2.120408950903068E+08, 5.171702015024396E+07,
2460168.500000000, A.D. 2023-Aug-12 00:00:00.0000, -1.846794425582923E+08, -2.185169049959219E+08, 5.542383536921459E+07,
2460175.500000000, A.D. 2023-Aug-19 00:00:00.0000, -1.739488945474617E+08, -2.245643544714120E+08, 5.902194082554717E+07,
2460182.500000000, A.D. 2023-Aug-26 00:00:00.0000, -1.628726985739422E+08, -2.301654342281709E+08, 6.250271564053509E+07,
2460189.500000000, A.D. 2023-Sep-02 00:00:00.0000, -1.514684370376094E+08, -2.353027441367988E+08, 6.585753843067098E+07,
2460196.500000000, A.D. 2023-Sep-09 00:00:00.0000, -1.397548578918844E+08, -2.399593594541646E+08, 6.907780861625437E+07,
2460203.500000000, A.D. 2023-Sep-16 00:00:00.0000, -1.277518919594357E+08, -2.441189018769749E+08, 7.215496985335632E+07,
2460210.500000000, A.D. 2023-Sep-23 00:00:00.0000, -1.154806654652201E+08, -2.477656151018349E+08, 7.508053564802623E+07,
2460217.500000000, A.D. 2023-Sep-30 00:00:00.0000, -1.029635074267292E+08, -2.508844436011543E+08, 7.784611733620819E+07,
2460224.500000000, A.D. 2023-Oct-07 00:00:00.0000, -9.022395351494968E+07, -2.534611149800445E+08, 8.044345463189456E+07,
2460231.500000000, A.D. 2023-Oct-14 00:00:00.0000, -7.728674457158621E+07, -2.554822289662223E+08, 8.286444838127024E+07,
2460238.500000000, A.D. 2023-Oct-21 00:00:00.0000, -6.417781575763655E+07, -2.569353510782900E+08, 8.510119533311747E+07,
2460245.500000000, A.D. 2023-Oct-28 00:00:00.0000, -5.092427695079701E+07, -2.578091082535359E+08, 8.714602518096590E+07,
2460252.500000000, A.D. 2023-Nov-04 00:00:00.0000, -3.755438483523455E+07, -2.580932866292318E+08, 8.899153982606703E+07,
2460259.500000000, A.D. 2023-Nov-11 00:00:00.0000, -2.409750571669639E+07, -2.577789313775855E+08, 9.063065464549366E+07,
2460266.500000000, A.D. 2023-Nov-18 00:00:00.0000, -1.058406808941007E+07, -2.568584478302296E+08, 9.205664153617050E+07,
2460273.500000000, A.D. 2023-Nov-25 00:00:00.0000, 2.954495818029193E+06, -2.553257029111090E+08, 9.326317346948333E+07,
2460280.500000000, A.D. 2023-Dec-02 00:00:00.0000, 1.648582016800316E+07, -2.531761258028557E+08, 9.424437023689136E+07,
2460287.500000000, A.D. 2023-Dec-09 00:00:00.0000, 2.997668790262968E+07, -2.504068066942703E+08, 9.499484500245772E+07,
2460294.500000000, A.D. 2023-Dec-16 00:00:00.0000, 4.339312606186924E+07, -2.470165922642340E+08, 9.550975120444566E+07,
2460301.500000000, A.D. 2023-Dec-23 00:00:00.0000, 5.670051459642909E+07, -2.430061757733772E+08, 9.578482933574991E+07,
2460308.500000000, A.D. 2023-Dec-30 00:00:00.0000, 6.986370736425592E+07, -2.383781791814944E+08, 9.581645325789995E+07,
2460315.500000000, A.D. 2024-Jan-06 00:00:00.0000, 8.284716335405509E+07, -2.331372280483001E+08, 9.560167540875587E+07,
2460322.500000000, A.D. 2024-Jan-13 00:00:00.0000, 9.561509089083853E+07, -2.272900193824396E+08, 9.513826981081194E+07,
2460329.500000000, A.D. 2024-Jan-20 00:00:00.0000, 1.081316053735982E+08, -2.208453777118647E+08, 9.442477233502865E+07,
2460336.500000000, A.D. 2024-Jan-27 00:00:00.0000, 1.203608975690924E+08, -2.138142971154147E+08, 9.346051775260679E+07,
2460343.500000000, A.D. 2024-Feb-03 00:00:00.0000, 1.322674108062264E+08, -2.062099686303157E+08, 9.224567281927249E+07,
2460350.500000000, A.D. 2024-Feb-10 00:00:00.0000, 1.438160258431565E+08, -1.980477919137654E+08, 9.078126463333495E+07,
2460357.500000000, A.D. 2024-Feb-17 00:00:00.0000, 1.549722517714259E+08, -1.893453699069849E+08, 8.906920357297453E+07,
2460364.500000000, A.D. 2024-Feb-24 00:00:00.0000, 1.657024209673432E+08, -1.801224854596293E+08, 8.711230017409860E+07,
2460371.500000000, A.D. 2024-Mar-02 00:00:00.0000, 1.759738858713211E+08, -1.704010591789941E+08, 8.491427537049264E+07,
2460378.500000000, A.D. 2024-Mar-09 00:00:00.0000, 1.857552153047256E+08, -1.602050880950888E+08, 8.247976358949682E+07,
2460385.500000000, A.D. 2024-Mar-16 00:00:00.0000, 1.950163881625311E+08, -1.495605648067746E+08, 7.981430830476388E+07,
2460392.500000000, A.D. 2024-Mar-23 00:00:00.0000, 2.037289817447480E+08, -1.384953762337970E+08, 7.692434989613312E+07,
2460399.500000000, A.D. 2024-Mar-30 00:00:00.0000, 2.118663498271922E+08, -1.270391826192229E+08, 7.381720589460757E+07,
2460406.500000000, A.D. 2024-Apr-06 00:00:00.0000, 2.194037881103083E+08, -1.152232811333005E+08, 7.050104331025828E+07,
2460413.500000000, A.D. 2024-Apr-13 00:00:00.0000, 2.263186881038311E+08, -1.030804545705049E+08, 6.698484292260946E+07,
2460420.500000000, A.D. 2024-Apr-20 00:00:00.0000, 2.325906762069842E+08, -9.064480412414624E+07, 6.327835614080612E+07,
2460427.500000000, A.D. 2024-Apr-27 00:00:00.0000, 2.382017344476113E+08, -7.795156877542341E+07, 5.939205499782714E+07,
2460434.500000000, A.D. 2024-May-04 00:00:00.0000, 2.431363012660311E+08, -6.503693425830662E+07, 5.533707583706818E+07,
2460441.500000000, A.D. 2024-May-11 00:00:00.0000, 2.473813512352554E+08, -5.193783418739886E+07, 5.112515740580595E+07,
2460448.500000000, A.D. 2024-May-18 00:00:00.0000, 2.509264528406786E+08, -3.869174596344692E+07, 4.676857418601017E+07,
2460455.500000000, A.D. 2024-May-25 00:00:00.0000, 2.537638037996016E+08, -2.533648417192887E+07, 4.228006586876532E+07,
2460462.500000000, A.D. 2024-Jun-01 00:00:00.0000, 2.558882438647693E+08, -1.190999424299688E+07, 3.767276392778061E+07,
2460469.500000000, A.D. 2024-Jun-08 00:00:00.0000, 2.572972456629089E+08, 1.549850952493755E+06, 3.296011626577927E+07,
2460476.500000000, A.D. 2024-Jun-15 00:00:00.0000, 2.579908846620277E+08, 1.500544959389508E+07, 2.815581094467995E+07,
2460483.500000000, A.D. 2024-Jun-22 00:00:00.0000, 2.579717883381371E+08, 2.841966334204150E+07, 2.327370018220906E+07,
2460490.500000000, A.D. 2024-Jun-29 00:00:00.0000, 2.572450638606814E+08, 4.175599978540017E+07, 1.832772561989714E+07,
2460497.500000000, A.D. 2024-Jul-06 00:00:00.0000, 2.558182086419128E+08, 5.497878057463100E+07, 1.333184529311003E+07,
2460504.500000000, A.D. 2024-Jul-13 00:00:00.0000, 2.537010075876133E+08, 6.805329652562782E+07, 8.299963135073468E+06,
2460511.500000000, A.D. 2024-Jul-20 00:00:00.0000, 2.509054171016514E+08, 8.094594962217757E+07, 3.245861979294460E+06,
2460518.500000000, A.D. 2024-Jul-27 00:00:00.0000, 2.474454373156812E+08, 9.362438007234827E+07, -1.816859356873941E+06,
2460525.500000000, A.D. 2024-Aug-03 00:00:00.0000, 2.433369749934737E+08, 1.060575774897988E+08, -6.874844444996558E+06,
2460532.500000000, A.D. 2024-Aug-10 00:00:00.0000, 2.385976994747467E+08, 1.182159759544429E+08, -1.191503267054921E+07,
2460539.500000000, A.D. 2024-Aug-17 00:00:00.0000, 2.332468938766463E+08, 1.300715330125019E+08, -1.692470741929214E+07,
2460546.500000000, A.D. 2024-Aug-24 00:00:00.0000, 2.273053036529516E+08, 1.415977928811838E+08, -2.189153887055484E+07,
2460553.500000000, A.D. 2024-Aug-31 00:00:00.0000, 2.207949845456017E+08, 1.527699343088920E+08, -2.680362137101245E+07,
2460560.500000000, A.D. 2024-Sep-07 00:00:00.0000, 2.137391520361930E+08, 1.635648039251788E+08, -3.164950546331619E+07,
2460567.500000000, A.D. 2024-Sep-14 00:00:00.0000, 2.061620339307098E+08, 1.739609369330976E+08, -3.641822462176045E+07,
2460574.500000000, A.D. 2024-Sep-21 00:00:00.0000, 1.980887253776701E+08, 1.839385665372528E+08, -4.109931665691946E+07,
2460581.500000000, A.D. 2024-Sep-28 00:00:00.0000, 1.895450469836872E+08, 1.934796199835432E+08, -4.568284024741977E+07,
2460588.500000000, A.D. 2024-Oct-05 00:00:00.0000, 1.805574106768525E+08, 2.025677023556895E+08, -5.015938722909451E+07,
2460595.500000000, A.D. 2024-Oct-12 00:00:00.0000, 1.711526937189262E+08, 2.111880722587435E+08, -5.452009068680589E+07,
2460602.500000000, A.D. 2024-Oct-19 00:00:00.0000, 1.613581196903147E+08, 2.193276102815475E+08, -5.875662905475542E+07,
2460609.500000000, A.D. 2024-Oct-26 00:00:00.0000, 1.512011468285347E+08, 2.269747805822203E+08, -6.286122664949477E+07,
2460616.500000000, A.D. 2024-Nov-02 00:00:00.0000, 1.407093642378326E+08, 2.341195865521639E+08, -6.682665104010749E+07,
2460623.500000000, A.D. 2024-Nov-09 00:00:00.0000, 1.299103961887000E+08, 2.407535216266167E+08, -7.064620762946291E+07,
2460630.500000000, A.D. 2024-Nov-16 00:00:00.0000, 1.188318145337852E+08, 2.468695162216893E+08, -7.431373180579466E+07,
2460637.500000000, A.D. 2024-Nov-23 00:00:00.0000, 1.075010591820034E+08, 2.524618816527745E+08, -7.782357901343979E+07,
2460644.500000000, A.D. 2024-Nov-30 00:00:00.0000, 9.594536664276412E+07, 2.575262518193575E+08, -8.117061308546667E+07,
2460651.500000000, A.D. 2024-Dec-07 00:00:00.0000, 8.419170678796044E+07, 2.620595238298751E+08, -8.435019314319223E+07,
2460658.500000000, A.D. 2024-Dec-14 00:00:00.0000, 7.226672681657237E+07, 2.660597994655930E+08, -8.735815918297902E+07,
2460665.500000000, A.D. 2024-Dec-21 00:00:00.0000, 6.019669972858618E+07, 2.695263268269399E+08, -9.019081649502137E+07,
2460672.500000000, A.D. 2024-Dec-28 00:00:00.0000, 4.800747886061072E+07, 2.724594397176425E+08, -9.284491957663201E+07,
2460679.500000000, A.D. 2025-Jan-04 00:00:00.0000, 3.572446066171025E+07, 2.748604976086447E+08, -9.531765582104246E+07,
2460686.500000000, A.D. 2025-Jan-11 00:00:00.0000, 2.337255347022362E+07, 2.767318282151870E+08, -9.760662888359314E+07,
2460693.500000000, A.D. 2025-Jan-18 00:00:00.0000, 1.097615094683467E+07, 2.780766720700630E+08, -9.970984188729180E+07,
2460700.500000000, A.D. 2025-Jan-25 00:00:00.0000, -1.440890017914651E+06, 2.788991288622512E+08, -1.016256806727919E+08,
2460707.500000000, A.D. 2025-Feb-01 00:00:00.0000, -1.385526715362870E+07, 2.792041057001855E+08, -1.033528972294509E+08,
2460714.500000000, A.D. 2025-Feb-08 00:00:00.0000, -2.624424677807967E+07, 2.789972674642816E+08, -1.048905934080539E+08,
$$EOE